[{"OBJECT_NAME":"STARLINK-34476","OBJECT_ID":"2025-126W","EPOCH":"2026-03-09T07:02:54.976704","MEAN_MOTION":14.98335488,"ECCENTRICITY":0.00029515,"INCLINATION":70.0025,"RA_OF_ASC_NODE":35.4114,"ARG_OF_PERICENTER":270.6697,"MEAN_ANOMALY":89.4123,"EPHEMERIS_TYPE":0,"CLASSIFICATION_TYPE":"U","NORAD_CAT_ID":64364,"ELEMENT_SET_NO":999,"REV_AT_EPOCH":4062,"BSTAR":0.00054138655,"MEAN_MOTION_DOT":6.374e-5,"MEAN_MOTION_DDOT":0},{"OBJECT_NAME":"ARIANE 5 R\/B","OBJECT_ID":"2004-049H","EPOCH":"2026-03-09T21:39:04.642848","MEAN_MOTION":14.85266245,"ECCENTRICITY":0.00839202,"INCLINATION":98.2628,"RA_OF_ASC_NODE":237.3671,"ARG_OF_PERICENTER":351.2342,"MEAN_ANOMALY":8.7401,"EPHEMERIS_TYPE":0,"CLASSIFICATION_TYPE":"U","NORAD_CAT_ID":28499,"ELEMENT_SET_NO":999,"REV_AT_EPOCH":14582,"BSTAR":0.0001160231,"MEAN_MOTION_DOT":9.95e-6,"MEAN_MOTION_DDOT":0}]
